{"type": "FeatureCollection", "features": [ {"type": "Feature", "properties": {"norad_id": 58662, "name": "TIANMU-1 21", "group": "weather", "lat": -65.95100664495476, "lon": 108.54641296852812, "alt_km": 475.2379180054768, "timestamp": "2025-12-04T03:47:54.197960+00:00", "meta": {"OBJECT_NAME": "TIANMU-1 21", "OBJECT_ID": "2023-208C", "EPOCH": "2025-12-03T20:14:55.742208", "MEAN_MOTION": 15.3124758, "ECCENTRICITY": 0.0005967, "INCLINATION": 97.4379, "RA_OF_ASC_NODE": 91.2081, "ARG_OF_PERICENTER": 297.4494, "MEAN_ANOMALY": 62.614, "EPHEMERIS_TYPE": 0, "CLASSIFICATION_TYPE": "U", "NORAD_CAT_ID": 58662, "ELEMENT_SET_NO": 999, "REV_AT_EPOCH": 10763, "BSTAR": 0.00055226, "MEAN_MOTION_DOT": 0.00016616, "MEAN_MOTION_DDOT": 0}, "tle": {"line1": "1 58662U 23208C   25337.84370072  .00016616  00000+0  55226-3 0  9995", "line2": "2 58662  97.4379  91.2081 0005967 297.4494  62.6140 15.31247580107637"}}, "geometry": {"type": "Point", "coordinates": [108.54641296852812, -65.95100664495476]}}, {"type": "Feature", "properties": {"norad_id": 58663, "name": "TIANMU-1 22", "group": "weather", "lat": -23.787412782335664, "lon": 92.57875891502101, "alt_km": 487.20612010732384, "timestamp": "2025-12-04T03:47:54.197971+00:00", "meta": {"OBJECT_NAME": "TIANMU-1 22", "OBJECT_ID": "2023-208D", "EPOCH": "2025-12-03T20:02:29.299776", "MEAN_MOTION": 15.27361166, "ECCENTRICITY": 0.0003042, "INCLINATION": 97.4389, "RA_OF_ASC_NODE": 88.9548, "ARG_OF_PERICENTER": 329.3779, "MEAN_ANOMALY": 30.7282, "EPHEMERIS_TYPE": 0, "CLASSIFICATION_TYPE": "U", "NORAD_CAT_ID": 58663, "ELEMENT_SET_NO": 999, "REV_AT_EPOCH": 10747, "BSTAR": 0.00049319, "MEAN_MOTION_DOT": 0.0001315, "MEAN_MOTION_DDOT": 0}, "tle": {"line1": "1 58663U 23208D   25337.83506134  .00013150  00000+0  49319-3 0  9991", "line2": "2 58663  97.4389  88.9548 0003042 329.3779  30.7282 15.27361166107470"}}, "geometry": {"type": "Point", "coordinates": [92.57875891502101, -23.787412782335664]}}, {"type": "Feature", "properties": {"norad_id": 58700, "name": "TIANMU-1 15", "group": "weather", "lat": -14.931544838561082, "lon": -22.344375694683045, "alt_km": 500.05451347613507, "timestamp": "2025-12-04T03:47:54.197981+00:00", "meta": {"OBJECT_NAME": "TIANMU-1 15", "OBJECT_ID": "2024-004A", "EPOCH": "2025-12-03T20:38:39.742080", "MEAN_MOTION": 15.24489156, "ECCENTRICITY": 0.0005749, "INCLINATION": 97.4624, "RA_OF_ASC_NODE": 159.3619, "ARG_OF_PERICENTER": 334.1938, "MEAN_ANOMALY": 25.9011, "EPHEMERIS_TYPE": 0, "CLASSIFICATION_TYPE": "U", "NORAD_CAT_ID": 58700, "ELEMENT_SET_NO": 999, "REV_AT_EPOCH": 10599, "BSTAR": 0.00045532, "MEAN_MOTION_DOT": 0.00011129, "MEAN_MOTION_DDOT": 0}, "tle": {"line1": "1 58700U 24004A   25337.86018220  .00011129  00000+0  45532-3 0  9992", "line2": "2 58700  97.4624 159.3619 0005749 334.1938  25.9011 15.24489156105991"}}, "geometry": {"type": "Point", "coordinates": [-22.344375694683045, -14.931544838561082]}}, {"type": "Feature", "properties": {"norad_id": 58701, "name": "TIANMU-1 16", "group": "weather", "lat": -73.90786779810554, "lon": -173.93957127783563, "alt_km": 498.1317390067752, "timestamp": "2025-12-04T03:47:54.197991+00:00", "meta": {"OBJECT_NAME": "TIANMU-1 16", "OBJECT_ID": "2024-004B", "EPOCH": "2025-12-02T23:46:09.262272", "MEAN_MOTION": 15.24215807, "ECCENTRICITY": 0.00050547, "INCLINATION": 97.4572, "RA_OF_ASC_NODE": 157.8955, "ARG_OF_PERICENTER": 336.3217, "MEAN_ANOMALY": 23.7787, "EPHEMERIS_TYPE": 0, "CLASSIFICATION_TYPE": "U", "NORAD_CAT_ID": 58701, "ELEMENT_SET_NO": 999, "REV_AT_EPOCH": 10586, "BSTAR": 6.5908855e-05, "MEAN_MOTION_DOT": 1.535e-05, "MEAN_MOTION_DDOT": 0}, "tle": {"line1": "1 58701U 24004B   25336.99038498  .00001535  00000+0  65909-4 0  9996", "line2": "2 58701  97.4572 157.8955 0005054 336.3217  23.7787 15.24215807105865"}}, "geometry": {"type": "Point", "coordinates": [-173.93957127783563, -73.90786779810554]}}, {"type": "Feature", "properties": {"norad_id": 58702, "name": "TIANMU-1 17", "group": "weather", "lat": 7.404013666307288, "lon": 158.4873902565013, "alt_km": 492.47447203106185, "timestamp": "2025-12-04T03:47:54.198000+00:00", "meta": {"OBJECT_NAME": "TIANMU-1 17", "OBJECT_ID": "2024-004C", "EPOCH": "2025-12-03T19:53:17.458656", "MEAN_MOTION": 15.24286322, "ECCENTRICITY": 0.0004278, "INCLINATION": 97.4597, "RA_OF_ASC_NODE": 159.135, "ARG_OF_PERICENTER": 337.4139, "MEAN_ANOMALY": 22.6909, "EPHEMERIS_TYPE": 0, "CLASSIFICATION_TYPE": "U", "NORAD_CAT_ID": 58702, "ELEMENT_SET_NO": 999, "REV_AT_EPOCH": 10598, "BSTAR": 0.00042315, "MEAN_MOTION_DOT": 0.00010272, "MEAN_MOTION_DDOT": 0}, "tle": {"line1": "1 58702U 24004C   25337.82867429  .00010272  00000+0  42315-3 0  9997", "line2": "2 58702  97.4597 159.1350 0004278 337.4139  22.6909 15.24286322105986"}}, "geometry": {"type": "Point", "coordinates": [158.4873902565013, 7.404013666307288]}}, {"type": "Feature", "properties": {"norad_id": 58703, "name": "TIANMU-1 18", "group": "weather", "lat": 77.97118346822815, "lon": 17.61296062966218, "alt_km": 486.96335666159575, "timestamp": "2025-12-04T03:47:54.198013+00:00", "meta": {"OBJECT_NAME": "TIANMU-1 18", "OBJECT_ID": "2024-004D", "EPOCH": "2025-12-03T21:03:42.284736", "MEAN_MOTION": 15.24279753, "ECCENTRICITY": 0.0003636, "INCLINATION": 97.4614, "RA_OF_ASC_NODE": 159.3771, "ARG_OF_PERICENTER": 338.6636, "MEAN_ANOMALY": 21.4449, "EPHEMERIS_TYPE": 0, "CLASSIFICATION_TYPE": "U", "NORAD_CAT_ID": 58703, "ELEMENT_SET_NO": 999, "REV_AT_EPOCH": 10599, "BSTAR": 0.00043459, "MEAN_MOTION_DOT": 0.0001055, "MEAN_MOTION_DDOT": 0}, "tle": {"line1": "1 58703U 24004D   25337.87757274  .00010550  00000+0  43459-3 0  9998", "line2": "2 58703  97.4614 159.3771 0003636 338.6636  21.4449 15.24279753105995"}}, "geometry": {"type": "Point", "coordinates": [17.61296062966218, 77.97118346822815]}}, {"type": "Feature", "properties": {"norad_id": 58990, "name": "INSAT-3DS", "group": "weather", "lat": -0.036404677879069584, "lon": -147.74625434017676, "alt_km": 35781.8576309464, "timestamp": "2025-12-04T03:47:54.198024+00:00", "meta": {"OBJECT_NAME": "INSAT-3DS", "OBJECT_ID": "2024-033A", "EPOCH": "2025-12-03T20:14:15.822816", "MEAN_MOTION": 1.00268816, "ECCENTRICITY": 0.0001775, "INCLINATION": 0.013, "RA_OF_ASC_NODE": 325.7109, "ARG_OF_PERICENTER": 294.1974, "MEAN_ANOMALY": 198.6664, "EPHEMERIS_TYPE": 0, "CLASSIFICATION_TYPE": "U", "NORAD_CAT_ID": 58990, "ELEMENT_SET_NO": 999, "REV_AT_EPOCH": 4511, "BSTAR": 0, "MEAN_MOTION_DOT": 0, "MEAN_MOTION_DDOT": 0}, "tle": {"line1": "1 58990U 24033A   25337.84323869  .00000000  00000+0  00000+0 0  9994", "line2": "2 58990   0.0130 325.7109 0001775 294.1974 198.6664  1.00268816 45113"}}, "geometry": {"type": "Point", "coordinates": [-147.74625434017676, -0.036404677879069584]}}, {"type": "Feature", "properties": {"norad_id": 59051, "name": "METEOR-M2 4", "group": "weather", "lat": 0.5654946443328194, "lon": 115.28846725334341, "alt_km": 825.071941495512, "timestamp": "2025-12-04T03:47:54.198037+00:00", "meta": {"OBJECT_NAME": "METEOR-M2 4", "OBJECT_ID": "2024-039A", "EPOCH": "2025-12-03T20:12:19.406592", "MEAN_MOTION": 14.22399029, "ECCENTRICITY": 0.0007513, "INCLINATION": 98.6753, "RA_OF_ASC_NODE": 294.8908, "ARG_OF_PERICENTER": 23.2235, "MEAN_ANOMALY": 336.9281, "EPHEMERIS_TYPE": 0, "CLASSIFICATION_TYPE": "U", "NORAD_CAT_ID": 59051, "ELEMENT_SET_NO": 999, "REV_AT_EPOCH": 9149, "BSTAR": 5.1434e-05, "MEAN_MOTION_DOT": 7.1e-07, "MEAN_MOTION_DDOT": 0}, "tle": {"line1": "1 59051U 24039A   25337.84189128  .00000071  00000+0  51434-4 0  9997", "line2": "2 59051  98.6753 294.8908 0007513  23.2235 336.9281 14.22399029 91499"}}, "geometry": {"type": "Point", "coordinates": [115.28846725334341, 0.5654946443328194]}}, {"type": "Feature", "properties": {"norad_id": 60133, "name": "GOES 19", "group": "weather", "lat": 0.01206738673909478, "lon": 55.02286323361667, "alt_km": 35788.98218856314, "timestamp": "2025-12-04T03:47:54.198049+00:00", "meta": {"OBJECT_NAME": "GOES 19", "OBJECT_ID": "2024-119A", "EPOCH": "2025-12-03T13:23:52.774080", "MEAN_MOTION": 1.00270855, "ECCENTRICITY": 0.0001338, "INCLINATION": 0.0059, "RA_OF_ASC_NODE": 37.8356, "ARG_OF_PERICENTER": 260.1729, "MEAN_ANOMALY": 260.4283, "EPHEMERIS_TYPE": 0, "CLASSIFICATION_TYPE": "U", "NORAD_CAT_ID": 60133, "ELEMENT_SET_NO": 999, "REV_AT_EPOCH": 500, "BSTAR": 0, "MEAN_MOTION_DOT": -2.3e-06, "MEAN_MOTION_DDOT": 0}, "tle": {"line1": "1 60133U 24119A   25337.55824970 -.00000230  00000+0  00000+0 0  9994", "line2": "2 60133   0.0059  37.8356 0001338 260.1729 260.4283  1.00270855  5001"}}, "geometry": {"type": "Point", "coordinates": [55.02286323361667, 0.01206738673909478]}}, {"type": "Feature", "properties": {"norad_id": 65815, "name": "FENGYUN 3H", "group": "weather", "lat": 44.02895123293216, "lon": 106.40430590951048, "alt_km": 821.7366703218286, "timestamp": "2025-12-04T03:47:54.198060+00:00", "meta": {"OBJECT_NAME": "FENGYUN 3H", "OBJECT_ID": "2025-219A", "EPOCH": "2025-12-03T18:42:27.188640", "MEAN_MOTION": 14.19900487, "ECCENTRICITY": 6.28e-05, "INCLINATION": 98.657, "RA_OF_ASC_NODE": 277.565, "ARG_OF_PERICENTER": 71.8149, "MEAN_ANOMALY": 288.3095, "EPHEMERIS_TYPE": 0, "CLASSIFICATION_TYPE": "U", "NORAD_CAT_ID": 65815, "ELEMENT_SET_NO": 999, "REV_AT_EPOCH": 965, "BSTAR": 9.1709e-05, "MEAN_MOTION_DOT": 1.51e-06, "MEAN_MOTION_DDOT": 0}, "tle": {"line1": "1 65815U 25219A   25337.77948135  .00000151  00000+0  91709-4 0  9994", "line2": "2 65815  98.6570 277.5650 0000628  71.8149 288.3095 14.19900487  9658"}}, "geometry": {"type": "Point", "coordinates": [106.40430590951048, 44.02895123293216]}}]}